C/2019 S4 (Lemmon),e,92.0586,63.1511,71.3709,231.1776,0.0002804,0.98510859,0.0000,04/07.9216/2020,2000,g 11.0,4.0
# From MPEC 2022-L66
A/2019 T1,e,120.8770,6.9448,91.0704,38.59988,0.0041098,0.88906540,2.4262,08/28.0/2022,2000,g 13.0,2.0
# From MPEC 2022-L66
C/2019 T2 (Lemmon),e,111.4862,155.6450,239.4218,2937,0.0000062,0.99909891,0.0000,04/22.4221/2021,2000,g  9.0,4.0
# From MPEC 2022-QD9
C/2019 T3 (ATLAS),e,121.8487,139.5308,112.4112,3198,0.0000054,0.99813949,0.0000,03/03.9358/2021,2000,g  6.8,4.0
# From MPEC 2022-QD9
C/2019 T4 (ATLAS),e,53.6305,199.9388,351.1936,993.4120,0.0000315,0.99572949,0.0000,06/09.0891/2022,2000,g  5.0,4.0
# From MPEC 2021-P47
P/2019 T5 (ATLAS),e,33.4671,247.6403,189.5612,7.995809,0.0435924,0.80933507,48.9348,08/28.0/2022,2000,g 15.0,4.0
# From MPEC 2021-P47
P/2019 T6 (PANSTARRS),e,18.6980,71.2467,328.9546,5.436280,0.0777591,0.62296107,79.6061,08/28.0/2022,2000,g 15.5,4.0
# From MPC118096
P/2019 U4 (PANSTARRS),e,11.6992,200.0009,181.0053,3.520345,0.1492197,0.47594196,160.2500,08/28.0/2022,2000,g 19.0,4.0
# From MPEC 2022-QD9
C/2019 U5 (PANSTARRS),h,03/29.9176/2023,113.5213,2.6371,181.5112,1.001426,3.624006,2000,4.5,4.0
# From MPEC 2022-H04
C/2019 U6 (Lemmon),e,60.9897,235.7311,329.6178,359.3009,0.0001447,0.99745572,0.0000,06/18.5759/2020,2000,g 10.0,4.0
# From MPEC 2022-N37
C/2019 V1 (Borisov),e,61.8856,83.1785,51.1694,1502,0.0000169,0.99793913,0.0000,07/16.3727/2020,2000,g 11.0,4.0
# From MPEC 2022-L66
P/2019 V2 (Groeller),e,11.8081,189.1844,335.8491,7.503498,0.0479522,0.33117172,32.5484,08/28.0/2022,2000,g 10.0,4.0
# From MPC119998
P/2019 W1 (PANSTARRS),e,23.4720,35.3782,18.6934,4.549406,0.1015715,0.26686740,122.6631,08/28.0/2022,2000,g 12.9,4.0
# From MPEC 2021-P47
P/2019 X1 (Pruyne),e,10.2487,43.6694,36.7842,6.173265,0.0642587,0.30334957,72.8384,08/28.0/2022,2000,g 10.4,4.0
# From MPC119999
C/2019 Y1 (ATLAS),e,73.3357,31.5456,57.9333,85.97574,0.0012363,0.99034405,0.0000,03/15.7552/2020,2000,g 13.7,4.0
# From MPEC 2022-O08
C/2019 Y4 (ATLAS),e,45.3063,120.6122,177.4523,350.5315,0.0001502,0.99927478,0.0000,05/30.9975/2020,2000,g 11.8,6.0
# From MPEC 2020-L06
C/2019 Y4-A (ATLAS),h,05/31.0220/2020,45.7517,120.9732,177.2854,1.001414,0.252359,2000,11.6,6.0
# From MPEC 2020-L06
C/2019 Y4-B (ATLAS),e,45.3867,120.6685,177.4183,1495,0.0000170,0.99983020,0.0000,05/30.9995/2020,2000,g 12.8,6.0
# From MPEC 2020-L06
C/2019 Y4-C (ATLAS),h,05/30.9782/2020,45.5338,120.6994,177.3188,1.002135,0.253420,2000,12.7,6.0
# From MPEC 2020-L06
C/2019 Y4-D (ATLAS),e,45.5767,121.0772,177.4565,68.41781,0.0017416,0.99630538,0.0000,05/31.1002/2020,2000,g 12.5,6.0
# From MPEC 2021-P47
C/2019 Y5 (PANSTARRS),e,82.7822,51.7661,303.5343,789.2069,0.0000445,0.99376975,0.0000,08/18.1653/2019,2000,g 11.0,4.0
# From MPEC 2022-O08
A/2020 A1,e,149.0408,119.2408,302.5723,25.74469,0.0075452,0.93523616,7.5403,08/28.0/2022,2000,g 18.0,2.0
# From MPEC 2020-L06
C/2020 A2 (Iwamoto),e,120.6843,286.3412,68.1377,1303,0.0000210,0.99925109,0.0000,01/08.5525/2020,2000,g 13.5,4.0
# From MPEC 2022-N37
C/2020 A3 (ATLAS),h,06/29.4270/2019,146.6854,120.8001,268.4163,1.001171,5.763954,2000,8.0,4.0
# From MPEC 2022-P91
P/2020 A4 (PANSTARRS-Lemmon),e,24.9903,312.4083,144.7653,8.194017,0.0420203,0.65371760,42.4142,08/28.0/2022,2000,g 15.0,4.0
# From MPEC 2020-N08
A/2020 B1,e,18.5146,309.9990,154.7115,51.34769,0.0026787,0.96605058,2.6143,08/28.0/2022,2000,g 21.0,2.0
# From MPEC 2022-N37
C/2020 B3 (Rankin),e,20.7098,185.8497,324.9611,997.9246,0.0000313,0.99665290,0.0000,10/19.4015/2019,2000,g 13.0,4.0
# From MPEC 2022-H04
P/2020 B4 (Sheppard),e,11.6092,185.9792,342.1876,7.966699,0.0438315,0.19168682,12.2731,08/28.0/2022,2000,g 10.5,4.0
# From MPEC 2022-QD9
C/2020 F2 (ATLAS),h,07/15.5737/2022,163.5857,250.2759,48.3516,1.005273,8.817080,2000,4.5,4.0
# From MPEC 2021-O56
C/2020 F3 (NEOWISE),e,129.0417,61.0465,37.3294,345.8819,0.0001532,0.99914588,0.0000,07/03.6183/2020,2000,g  7.5,5.2
# From MPEC 2022-QD9
C/2020 F5 (MASTER),e,52.2417,350.5184,310.7036,201.1372,0.0003455,0.97850718,0.0000,03/18.4985/2021,2000,g  6.5,3.2
# From MPEC 2020-L06
C/2020 F6 (PANSTARRS),e,174.5830,207.9067,344.6009,412.9161,0.0001175,0.99150263,0.0000,04/11.7736/2020,2000,g 14.5,2.8
# From MPEC 2022-L66
C/2020 F7 (Lemmon),e,93.9508,321.8809,227.9562,625.1179,0.0000631,0.99147038,0.0000,11/13.8613/2021,2000,g  7.0,4.0
# From MPEC 2020-KB7
C/2020 F8 (SWAN),e,110.7006,259.9270,68.1545,262.3448,0.0002320,0.99836272,0.0000,05/27.5282/2020,2000,g 10.0,4.0
# From MPEC 2020-L06
P/2020 G1 (Pimentel),e,18.4977,240.1102,207.6143,3.608812,0.1437665,0.86013968,128.4695,08/28.0/2022,2000,g 17.0,4.0
# From MPEC 2020-L06
C/2020 H2 (Pruyne),e,124.9717,277.6576,26.6938,192.6231,0.0003687,0.99567769,0.0000,04/27.7734/2020,2000,g 18.0,4.0
# From MPEC 2020-HM1
C/2020 H3 (Wierzchos),p,06/05.7162/2020,62.5292,30.4456,2.300288,270.6227,2000,13.5,4.0
# From MPEC 2020-L06
C/2020 H4 (Leonard),e,84.5050,307.7015,117.5572,47.93139,0.0029701,0.98069411,0.0000,08/29.6017/2020,2000,g 15.0,3.2
# From MPEC 2022-N37
C/2020 H5 (Robinson),e,70.2478,210.6275,326.3738,3564,0.0000046,0.99737842,0.0000,12/11.3840/2020,2000,g  5.0,4.0
# From MPEC 2022-QD9
C/2020 H6 (ATLAS),h,09/30.9547/2021,79.9761,213.7145,20.3329,1.000174,4.702693,2000,8.0,3.2
# From MPEC 2020-KB7
C/2020 H7 (Lemmon),e,135.9235,323.5194,82.6780,1405,0.0000187,0.99685380,0.0000,06/02.9510/2020,2000,g 11.0,4.0
# From MPEC 2021-N06
C/2020 H8 (PANSTARRS),e,99.6710,68.4154,128.9483,592.7222,0.0000683,0.99211118,0.0000,06/04.4927/2020,2000,g 10.5,4.0
# From MPEC 2022-ED3
A/2020 H9,e,137.8759,213.1680,312.8634,371.5612,0.0001376,0.99306484,0.0000,12/21.4344/2019,2000,g 18.0,2.0
# From MPEC 2022-P82
C/2020 J1 (SONEAR),h,04/18.6551/2021,142.3025,226.5933,341.7625,1.000801,3.354851,2000,8.5,3.2
# From MPEC 2022-QD9
C/2020 K1 (PANSTARRS),e,89.6649,94.3553,213.9802,73541,0.0000000,0.99995821,0.0000,05/09.0674/2023,2000,g  5.5,4.0
# From MPEC 2021-N06
C/2020 K2 (PANSTARRS),h,08/06.2318/2020,91.0351,288.3730,67.3436,1.003822,8.879533,2000,10.8,4.0
# From MPEC 2020-KF9
C/2020 K3 (Leonard),p,06/01.0032/2020,129.0152,64.4924,1.583069,28.3546,2000,14.5,4.0
# From MPEC 2020-L06
C/2020 K4 (PANSTARRS),e,125.5779,264.1510,308.8416,23.93788,0.0084154,0.92670854,7.6347,08/28.0/2022,2000,g 16.5,4.0
# From MPEC 2021-R75
C/2020 K5 (PANSTARRS),h,06/05.5573/2021,67.1370,86.1665,249.6009,1.001471,1.536088,2000,11.0,4.0
# From MPEC 2022-PB4
C/2020 K6 (Rankin),h,09/15.7674/2021,103.6487,291.5373,44.3273,1.003531,5.868716,2000,8.0,4.0
# From MPEC 2022-L66
C/2020 K7 (PANSTARRS),e,32.0399,286.0691,358.2626,100.1412,0.0009835,0.93617229,1.0173,08/28.0/2022,2000,g  8.0,4.0
# From MPEC 2021-P47
C/2020 K8 (Catalina-ATLAS),h,09/14.6461/2020,31.4300,181.5471,259.9751,1.000155,0.473009,2000,15.0,3.2
# From MPEC 2021-BE3
P/2020 K9 (Lemmon-PANSTARRS),e,23.2098,166.2395,196.9868,4.201065,0.1144630,0.32140875,64.3029,08/28.0/2022,2000,g 12.5,4.0
# From MPEC 2021-U31
P/2020 M1 (PANSTARRS),e,8.5582,142.6998,72.5133,5.315252,0.0804300,0.47564115,78.3037,08/28.0/2022,2000,g 14.5,4.0
# From MPEC 2022-H30
C/2020 M3 (ATLAS),e,23.4732,71.1970,328.5040,27.00699,0.0070225,0.95305063,4.7137,08/28.0/2022,2000,g 14.5,4.0
# From MPEC 2022-OB6
A/2020 M4,h,11/24.2231/2020,160.1277,348.6211,104.6541,1.000713,5.952361,2000,14.5,2.0
# From MPEC 2022-P82
C/2020 M5 (ATLAS),h,08/19.8683/2021,93.2249,352.0937,126.3267,1.000383,3.003908,2000,9.0,4.0
# From MPEC 2022-GA9
C/2020 N1 (PANSTARRS),h,03/12.2416/2021,29.7109,279.9553,186.7556,1.000435,1.319621,2000,12.5,4.0
# From MPEC 2021-P47
C/2020 N2 (ATLAS),e,161.0352,257.1243,331.2995,103.9053,0.0009306,0.98273265,0.0000,08/23.8827/2020,2000,g 16.0,3.2
# From MPEC 2022-PB4
P/2020 O1 (Lemmon-PANSTARRS),e,5.2256,175.9750,104.5541,2.645084,0.2291104,0.11909830,194.1966,08/28.0/2022,2000,g 15.5,4.0
# From MPEC 2022-QD9
C/2020 O2 (Amaral),h,08/28.6543/2021,71.7555,256.7621,10.3161,1.002105,4.862491,2000,8.0,3.2
# From MPEC 2020-SI8
P/2020 O3 (PANSTARRS),e,8.4432,266.8207,81.5759,4.649025,0.0983244,0.10353699,56.5396,08/28.0/2022,2000,g 12.0,4.0
# From MPEC 2021-BE3
C/2020 P1 (NEOWISE),h,10/20.2754/2020,45.1287,53.5012,8.8868,1.000283,0.341364,2000,14.0,3.2
# From MPEC 2022-O01
C/2020 P3 (ATLAS),h,04/20.9950/2021,61.8883,19.4676,82.2581,1.000489,6.812346,2000,6.0,4.0
# From MPEC 2022-PB4
C/2020 PV6 (PANSTARRS),e,128.2372,329.1465,71.3931,41.98276,0.0036232,0.94531905,1.2172,08/28.0/2022,2000,g 10.0,4.0
# From MPEC 2022-L66
C/2020 Q1 (Borisov),e,142.9274,52.4061,9.9326,60.67184,0.0020856,0.97830706,0.0000,08/14.4973/2020,2000,g 14.0,4.0
# From MPEC 2022-C56
C/2020 R2 (PANSTARRS),e,53.2283,195.0933,211.7613,404.9723,0.0001209,0.98841386,0.0000,02/24.6828/2022,2000,g  9.0,4.0
# From MPEC 2022-K19
C/2020 R4 (ATLAS),e,164.4600,323.2745,46.7163,99.58530,0.0009918,0.98967470,0.0000,03/02.0322/2021,2000,g 13.5,4.0
# From MPEC 2020-W26
P/2020 R5 (PANSTARRS),e,11.4488,272.9763,82.5252,4.985108,0.0885507,0.31469976,72.6776,08/28.0/2022,2000,g  9.5,6.0
# From MPEC 2021-Y10
C/2020 R6 (Rankin),e,82.8105,12.1774,271.9955,334.0051,0.0001615,0.99062193,0.0000,09/09.1400/2019,2000,g 11.0,4.0
# From MPEC 2022-QD9
C/2020 R7 (ATLAS),h,09/16.2352/2022,114.8909,268.2819,347.8371,1.000144,2.955968,2000,7.0,3.2
# From MPEC 2021-BE3
P/2020 S1 (PANSTARRS),e,13.7319,129.4630,254.9664,5.989012,0.0672467,0.50767429,39.5180,08/28.0/2022,2000,g 14.0,4.0
# From MPEC 2021-BE3
C/2020 S2 (PANSTARRS),e,22.4027,197.6651,202.3145,10.20945,0.0302135,0.82797645,18.5486,08/28.0/2022,2000,g 17.0,4.0
# From MPEC 2022-C56
C/2020 S3 (Erasmus),e,19.9955,222.6428,350.0753,162.4500,0.0004760,0.99756118,0.0000,12/12.4478/2020,2000,g 13.5,3.2
# From MPEC 2022-H04
C/2020 S4 (PANSTARRS),h,02/09.2618/2023,20.5715,117.7232,20.9947,1.000858,3.369671,2000,8.5,3.2
# From MPEC 2021-BE3
P/2020 S5 (PANSTARRS),e,12.3512,316.0028,53.1554,4.052802,0.1208011,0.33861322,90.4872,08/28.0/2022,2000,g 14.5,4.0
# From MPEC 2021-P47
P/2020 S6 (Leonard),e,15.4622,242.5404,176.6770,3.600090,0.1442893,0.47948054,92.6669,08/28.0/2022,2000,g 16.0,4.0
